[{"OBJECT_NAME":"STARLINK-34928","OBJECT_ID":"2025-175X","EPOCH":"2026-03-09T14:47:24.405216","MEAN_MOTION":15.05647683,"ECCENTRICITY":0.0001825,"INCLINATION":97.6015,"RA_OF_ASC_NODE":302.6523,"ARG_OF_PERICENTER":69.2169,"MEAN_ANOMALY":290.9254,"EPHEMERIS_TYPE":0,"CLASSIFICATION_TYPE":"U","NORAD_CAT_ID":65195,"ELEMENT_SET_NO":999,"REV_AT_EPOCH":3263,"BSTAR":0.00016214,"MEAN_MOTION_DOT":2.279e-5,"MEAN_MOTION_DDOT":0},{"OBJECT_NAME":"COSMOS 886 DEB","OBJECT_ID":"1976-126CG","EPOCH":"2026-03-09T13:42:09.387072","MEAN_MOTION":14.65936144,"ECCENTRICITY":0.0273927,"INCLINATION":65.5637,"RA_OF_ASC_NODE":138.088,"ARG_OF_PERICENTER":273.4033,"MEAN_ANOMALY":83.5779,"EPHEMERIS_TYPE":0,"CLASSIFICATION_TYPE":"U","NORAD_CAT_ID":20673,"ELEMENT_SET_NO":999,"REV_AT_EPOCH":71273,"BSTAR":0.0023391,"MEAN_MOTION_DOT":0.00022449,"MEAN_MOTION_DDOT":0}]
